GLOBALSTAR M023 [+]     
1 25621U 99004A   24076.21441525 -.00000057  00000+0  26196-3 0  9990
2 25621  52.0138   7.9184 0010007 191.7702 315.9633 12.62449368157975
GLOBALSTAR M040 [-]     
1 25622U 99004B   24076.77590012 -.00000070  00000+0  18801-3 0  9997
2 25622  51.9946   9.6922 0001161  92.3229 285.8540 12.61968983157500
GLOBALSTAR M038 [-]     
1 25624U 99004D   24076.96230619 -.00000066  00000+0  24000-3 0  9997
2 25624  51.9980 308.2927 0001833 155.4205 309.1025 12.32494705145996
GLOBALSTAR M022 [-]     
1 25649U 99012A   24077.05834624 -.00000113  00000+0 -31046-3 0  9992
2 25649  52.0026  93.5620 0002387 347.4550  46.4392 12.02478779121465
GLOBALSTAR M041 [-]     
1 25650U 99012B   24076.81994187 -.00000102  00000+0 -21442-3 0  9995
2 25650  52.0040 321.7207 0002765 115.6091 244.5031 11.96656140123527
GLOBALSTAR M037 [+]     
1 25652U 99012D   24077.17402062 -.00000040  00000+0  35717-3 0  9993
2 25652  51.9993 135.7911 0001633 239.3611 138.8698 12.62399337153606
